     2.100          NAVIGATION                              RINEX VERSION / TYPE
fic2rin                                 10/24/2010 00:26:35 PGM / RUN BY / DATE
                                                            END OF HEADER
10 10 10 23 21 59 44.0 -.559664331377D-04 -.102318153949D-11  .000000000000D+00
     .580000000000D+02  .120843750000D+03  .491806199988D-08  .273694122104D+00
     .647455453873D-05  .948879634961D-02  .541843473911D-05  .515353502655D+04
     .597584000000D+06 -.372529029846D-08 -.219793874803D+01  .707805156708D-07
     .951644630356D+00  .266187500000D+03  .666285593012D+00 -.851785480284D-08
     .185722021782D-09  .100000000000D+01  .160600000000D+04  .000000000000D+00
     .240000000000D+01  .000000000000D+00 -.279396772385D-08  .580000000000D+02
     .593796000000D+06  .400000000000D+01
 4 10 10 23 21 59 44.0  .201395712793D-03  .954969436862D-11  .000000000000D+00
     .200000000000D+01  .136875000000D+02  .489556106263D-08  .142577361201D+01
     .957399606705D-06  .941341882572D-02  .123195350170D-04  .515377790451D+04
     .597584000000D+06 -.139698386192D-06  .301770759678D+01  .111758708954D-06
     .939067200947D+00  .132906250000D+03  .663241923191D+00 -.816855453880D-08
    -.491806199988D-09  .100000000000D+01  .160600000000D+04  .000000000000D+00
     .240000000000D+01  .000000000000D+00 -.605359673500D-08  .200000000000D+01
     .596286000000D+06  .400000000000D+01
 4 10 10 23 23 59 44.0  .201464165002D-03  .954969436862D-11  .000000000000D+00
     .300000000000D+01  .187812500000D+02  .483234414367D-08  .247597901981D+01
     .959262251854D-06  .941384653561D-02  .124163925648D-04  .515377622223D+04
     .604784000000D+06 -.119209289551D-06  .301764880064D+01 -.208616256714D-06
     .939065193823D+00  .128312500000D+03  .663157179273D+00 -.789818613401D-08
    -.370372570361D-09  .100000000000D+01  .160600000000D+04  .000000000000D+00
     .240000000000D+01  .000000000000D+00 -.605359673500D-08  .300000000000D+01
     .597606000000D+06  .400000000000D+01
10 10 10 23 23 59 44.0 -.559734180570D-04 -.102318153949D-11  .000000000000D+00
     .590000000000D+02  .131875000000D+03  .491520473801D-08  .132388057635D+01
     .702776014805D-05  .949036341626D-02  .613182783127D-05  .515353815079D+04
     .604784000000D+06 -.502914190292D-07 -.219800038955D+01  .158324837685D-06
     .951646122532D+00  .256500000000D+03  .666366116412D+00 -.850606859761D-08
     .253224833545D-09  .100000000000D+01  .160600000000D+04  .000000000000D+00
     .240000000000D+01  .000000000000D+00 -.279396772385D-08  .590000000000D+02
     .597606000000D+06  .400000000000D+01
 1 10 10 24  0  0  0.0 -.175319612026D-03 -.375166564481D-11  .000000000000D+00
     .770000000000D+02  .315625000000D+02  .439196865741D-08  .953320479087D+00
     .166520476341D-05  .443280569743D-02  .866688787937D-05  .515351373672D+04
     .000000000000D+00 -.931322574615D-07  .798042973350D+00 -.260770320892D-07
     .966323905852D+00  .216687500000D+03  .953553562899D+00 -.794675958586D-08
     .537165232231D-09  .100000000000D+01  .160700000000D+04  .000000000000D+00
     .240000000000D+01  .630000000000D+02 -.190921127796D-07  .770000000000D+02
     .597606000000D+06  .400000000000D+01
 2 10 10 24  0  0  0.0  .297559425235D-03  .261479726760D-11  .000000000000D+00
     .490000000000D+02  .161250000000D+02  .492556231230D-08 -.509669733744D+00
     .875443220139D-06  .974831928033D-02  .115633010864D-04  .515365903091D+04
     .000000000000D+00  .152736902237D-06  .287956949296D+01 -.838190317154D-07
     .939935979718D+00  .145218750000D+03 -.313935991876D+01 -.815212528303D-08
    -.364658046614D-09  .100000000000D+01  .160700000000D+04  .000000000000D+00
     .240000000000D+01  .000000000000D+00 -.172294676304D-07  .490000000000D+02
     .597606000000D+06  .400000000000D+01
 3 10 10 24  0  0  0.0  .625643413514D-03  .500222085975D-11  .000000000000D+00
     .129000000000D+03 -.135000000000D+02  .582631411794D-08 -.624914256564D+00
    -.437721610069D-06  .137787329732D-01  .430643558502D-05  .515360484886D+04
     .000000000000D+00 -.372529029846D-07  .172491955359D+01  .203028321266D-06
     .927342917566D+00  .280500000000D+03  .105100774084D+01 -.890929967952D-08
    -.560737642688D-10  .100000000000D+01  .160700000000D+04  .000000000000D+00
     .340000000000D+01  .000000000000D+00 -.465661287308D-08  .129000000000D+03
     .597606000000D+06  .400000000000D+01
 5 10 10 24  0  0  0.0 -.561820343137D-04 -.602540239925D-11  .000000000000D+00
     .260000000000D+02  .132343750000D+03  .472162524607D-08  .117308120914D+01
     .703148543835D-05  .195949606132D-02  .623986124992D-05  .515355315208D+04
     .000000000000D+00  .726431608200D-07 -.234332993385D+01 -.465661287308D-07
     .956676053283D+00  .253937500000D+03  .164287430934D+00 -.831748931396D-08
     .269296931584D-09  .100000000000D+01  .160700000000D+04  .000000000000D+00
     .240000000000D+01  .000000000000D+00 -.884756445885D-08  .260000000000D+02
     .597606000000D+06  .400000000000D+01
 6 10 10 24  0  0  0.0  .445059034973D-03 -.135287336889D-10  .000000000000D+00
     .740000000000D+02 -.220312500000D+02  .552344435934D-08  .153772793990D+01
    -.119209289551D-05  .616632902529D-02  .418350100517D-05  .515364676285D+04
     .000000000000D+00  .149011611938D-06  .179680604748D+01 -.204890966415D-07
     .934626280513D+00  .284156250000D+03 -.929246683083D+00 -.850606859761D-08
    -.173935816553D-09  .100000000000D+01  .160700000000D+04  .000000000000D+00
     .240000000000D+01  .000000000000D+00 -.512227416039D-08  .740000000000D+02
     .597606000000D+06  .400000000000D+01
 7 10 10 24  0  0  0.0 -.119907781482D-05  .227373675443D-12  .000000000000D+00
     .460000000000D+02 -.109812500000D+03  .384158858901D-08 -.221716003160D+01
    -.572018325329D-05  .415527308360D-02  .113509595394D-04  .515369424438D+04
     .000000000000D+00 -.335276126862D-07 -.240317761697D+00 -.167638063431D-07
     .973308875936D+00  .167031250000D+03  .313117220765D+01 -.765853329437D-08
    -.792890169915D-10  .100000000000D+01  .160700000000D+04  .000000000000D+00
     .240000000000D+01  .000000000000D+00 -.102445483208D-07  .460000000000D+02
     .597606000000D+06  .400000000000D+01
 8 10 10 24  0  0  0.0  .688573345542D-05  .000000000000D+00  .000000000000D+00
     .320000000000D+02 -.108875000000D+03  .335371112410D-08 -.279001593139D+01
    -.564195215702D-05  .115325681400D-01  .121500343084D-04  .515366102600D+04
     .000000000000D+00 -.169500708580D-06 -.169349523939D+00 -.372529029846D-08
     .994833347008D+00  .161500000000D+03 -.312690956719D+01 -.728923219721D-08
    -.675028117631D-10  .100000000000D+01  .160700000000D+04  .000000000000D+00
     .340000000000D+01  .000000000000D+00 -.372529029846D-08  .320000000000D+02
     .597606000000D+06  .400000000000D+01
 9 10 10 24  0  0  0.0  .381530262530D-04  .216004991671D-11  .000000000000D+00
     .540000000000D+02 -.111031250000D+03  .357550607704D-08 -.291282480568D+01
    -.553950667381D-05  .169766291510D-01  .103004276752D-04  .515370417404D+04
     .000000000000D+00  .180676579475D-06 -.270367314730D+00  .242143869400D-07
     .982329749611D+00  .189437500000D+03  .155236055124D+01 -.727316009917D-08
    -.135005623526D-09  .100000000000D+01  .160700000000D+04  .000000000000D+00
     .240000000000D+01  .000000000000D+00 -.558793544769D-08  .540000000000D+02
     .597606000000D+06  .400000000000D+01
11 10 10 24  0  0  0.0 -.986922532320D-04 -.272848410532D-11  .000000000000D+00
     .110000000000D+02 -.205937500000D+02  .607811032055D-08 -.232914895897D+01
    -.139512121677D-05  .113083362812D-01  .987388193607D-05  .515347624016D+04
     .000000000000D+00  .206753611565D-06  .265351645528D+01 -.875443220139D-07
     .888468071301D+00  .146656250000D+03  .869253678076D+00 -.853606984729D-08
    -.362515100209D-09  .100000000000D+01  .160700000000D+04  .000000000000D+00
     .240000000000D+01  .000000000000D+00 -.116415321827D-07  .110000000000D+02
     .597606000000D+06  .400000000000D+01
12 10 10 24  0  0  0.0 -.606505200267D-04  .352429196937D-11  .000000000000D+00
     .630000000000D+02  .256875000000D+02  .417695970142D-08 -.220104949996D+01
     .138580799103D-05  .331824109890D-02  .870414078236D-05  .515357889175D+04
     .000000000000D+00 -.260770320892D-07  .813360876957D+00 -.186264514923D-08
     .972420902217D+00  .217843750000D+03 -.318765355388D+00 -.778425281680D-08
     .635026451401D-09  .100000000000D+01  .160700000000D+04  .000000000000D+00
     .240000000000D+01  .000000000000D+00 -.116415321827D-07  .630000000000D+02
     .597606000000D+06  .400000000000D+01
13 10 10 24  0  0  0.0  .294065102935D-03 -.102318153949D-11  .000000000000D+00
     .480000000000D+02 -.675625000000D+02  .413981529707D-08  .228524668501D+00
    -.356696546078D-05  .428953161463D-02  .214390456676D-05  .515368956757D+04
     .000000000000D+00 -.782310962677D-07 -.121867994581D+01  .372529029846D-08
     .991417929222D+00  .354375000000D+03  .180964996058D+01 -.823248577322D-08
    -.341442793891D-09  .100000000000D+01  .160700000000D+04  .000000000000D+00
     .240000000000D+01  .000000000000D+00 -.107102096081D-07  .480000000000D+02
     .597606000000D+06  .400000000000D+01
14 10 10 24  0  0  0.0  .100761186332D-03  .341060513165D-11  .000000000000D+00
     .760000000000D+02 -.529062500000D+02  .432053711057D-08  .184856129348D+00
    -.271573662758D-05  .574242661241D-02  .206753611565D-05  .515358505249D+04
     .000000000000D+00 -.186264514923D-08 -.124146371579D+01  .298023223877D-07
     .984576415811D+00  .352406250000D+03 -.210550411851D+01 -.832356099544D-08
    -.330013746397D-09  .100000000000D+01  .160700000000D+04  .000000000000D+00
     .240000000000D+01  .000000000000D+00 -.884756445885D-08  .760000000000D+02
     .597606000000D+06  .400000000000D+01
